ONEWEB-0208             
1 48243U 21031AK  24158.53392151  .00000211  00000+0  53498-3 0  9992
2 48243  87.8969  77.0628 0002046  73.9284 286.2071 13.14502015151000
ONEWEB-0200             
1 48244U 21031AL  24159.33474353 -.00000139  00000+0 -40813-3 0  9995
2 48244  87.8969  76.9005 0002137  73.0673 287.0691 13.14502929151036
ONEWEB-0217             
1 48245U 21031AM  24159.50283018 -.00000072  00000+0 -22893-3 0  9995
2 48245  87.8967  76.8516 0002247  71.8180 288.3194 13.14502033151018
ONEWEB-0211             
1 48767U 21045A   24158.44876931  .00000240  00000+0  60238-3 0  9993
2 48767  87.9048  46.5871 0001996  81.5675 278.5681 13.15549219147029
ONEWEB-0223             
1 48768U 21045B   24159.38364287  .00000105  00000+0  24581-3 0  9995
2 48768  87.9050  46.4080 0002601  84.8309 275.3118 13.15550110147132
ONEWEB-0230             
1 48769U 21045C   24158.44241992  .00000173  00000+0  42595-3 0  9999
2 48769  87.9049  46.6661 0001849  84.4478 275.6864 13.15547181147274
ONEWEB-0237             
1 48770U 21045D   24159.64824782 -.00000042  00000+0 -14643-3 0  9998
2 48770  87.9054  46.3567 0002306  83.9800 276.1593 13.15546857148282
ONEWEB-0235             
1 48771U 21045E   24159.39472768 -.00000020  00000+0 -87337-4 0  9991
2 48771  87.9049  46.4179 0002607  88.2395 271.9034 13.15548088147110
ONEWEB-0242             
1 48772U 21045F   24159.38838941  .00000059  00000+0  12261-3 0  9993
2 48772  87.9047  46.4078 0002016  84.8234 275.3126 13.15548144147152
ONEWEB-0241             
1 48773U 21045G   24159.37571763  .00000189  00000+0  46746-3 0  9998
2 48773  87.9057  46.4564 0002288  75.8638 284.2747 13.15547866147061
ONEWEB-0243             
1 48774U 21045H   24159.63558131 -.00000137  00000+0 -39872-3 0  9999
2 48774  87.9056  46.3635 0002412  88.2973 271.8433 13.15550183148250
ONEWEB-0222             
1 48775U 21045J   24158.40201727 -.00000069  00000+0 -21821-3 0  9999
2 48775  87.9049  46.6137 0002187  79.3259 280.8118 13.15547996147000
ONEWEB-0244             
1 48776U 21045K   24159.64508181 -.00000028  00000+0 -10841-3 0  9996
2 48776  87.9044  46.3492 0001976  86.6038 273.5319 13.15548384148856
ONEWEB-0247             
1 48777U 21045L   24159.64191364 -.00000032  00000+0 -11878-3 0  9994
2 48777  87.9055  46.3898 0002867  92.1292 268.0166 13.15547932148300
ONEWEB-0245             
1 48778U 21045M   24159.63715445 -.00000039  00000+0 -13660-3 0  9994
2 48778  87.9047  46.3811 0002087  75.3695 284.7667 13.15547700148271
ONEWEB-0229             
1 48779U 21045N   24159.63239546 -.00000890  00000+0 -23972-2 0  9999
2 48779  87.9057  46.3741 0002026  83.8301 276.3060 13.15551583148308
ONEWEB-0228             
1 48780U 21045P   24159.64745724 -.00000019  00000+0 -84023-4 0  9991
2 48780  87.9046  46.3480 0001986  82.4638 277.6717 13.15547795148224
ONEWEB-0232             
1 48781U 21045Q   24159.64032199 -.00000083  00000+0 -25457-3 0  9993
2 48781  87.9039  46.3713 0002021  83.0131 277.1229 13.15547580148531
ONEWEB-0231             
1 48782U 21045R   24158.40122831  .00000004  00000+0 -23564-4 0  9990
2 48782  87.9056  46.6461 0002164  83.5050 276.6327 13.15548192146943
ONEWEB-0234             
1 48783U 21045S   24159.63794815 -.00000075  00000+0 -23433-3 0  9997
2 48783  87.9048  46.3599 0001771  37.6339 322.4915 13.15548100148378
ONEWEB-0238             
1 48784U 21045T   24159.66805428  .00000122  00000+0  29081-3 0  9990
2 48784  87.9047  46.3720 0001741  76.0023 284.1301 13.15547202148272
ONEWEB-0240             
1 48785U 21045U   24158.38458783  .00000096  00000+0  22039-3 0  9993
2 48785  87.9048  46.5950 0002297  77.1012 283.0374 13.15547147147004
ONEWEB-0246             
1 48786U 21045V   24159.67201941  .00000115  00000+0  27171-3 0  9993
2 48786  87.9045  46.3431 0001994  85.4938 274.6420 13.15547313148167
ONEWEB-0210             
1 48787U 21045W   24159.64665655 -.00000257  00000+0 -71789-3 0  9990
2 48787  87.9035  46.3539 0002753  94.5598 265.5847 13.15550773148215
ONEWEB-0214             
1 48788U 21045X   24159.65616976  .00000048  00000+0  94529-4 0  9998
2 48788  87.9046  46.3401 0002198  97.2615 262.8765 13.15547150148178
ONEWEB-0221             
1 48789U 21045Y   24159.66251084  .00000101  00000+0  23372-3 0  9992
2 48789  87.9048  46.3565 0002175  80.2978 279.8398 13.15548244148288
ONEWEB-0213             
1 48790U 21045Z   24159.65141603 -.00000032  00000+0 -12023-3 0  9994
2 48790  87.9046  46.3726 0002272  82.6234 277.5154 13.15547061148333
ONEWEB-0212             
1 48791U 21045AA  24158.41152451 -.00000072  00000+0 -22573-3 0  9996
2 48791  87.9050  46.6017 0001877  77.6333 282.5007 13.15547666147039
ONEWEB-0227             
1 48792U 21045AB  24158.41073027 -.00000021  00000+0 -89401-4 0  9996
2 48792  87.9050  46.6175 0002069  79.8458 280.2905 13.15548335146980
ONEWEB-0226             
1 48793U 21045AC  24158.40439402 -.00000082  00000+0 -25124-3 0  9997
2 48793  87.9048  46.6256 0002349  90.4357 269.7042 13.15547850146958
ONEWEB-0224             
1 48794U 21045AD  24158.44400694  .00000179  00000+0  44137-3 0  9993
2 48794  87.9054  46.6380 0002678  61.5515 298.5885 13.15546789146881
ONEWEB-0233             
1 48795U 21045AE  24159.65696280  .00000051  00000+0  10067-3 0  9990
2 48795  87.9050  46.4080 0001955  85.0901 275.0453 13.15546972148179
ONEWEB-0190             
1 48796U 21045AF  24159.65300895  .00000020  00000+0  19474-4 0  9993
2 48796  87.9053  46.3722 0002898  86.8692 273.2770 13.15547910148252
ONEWEB-0236             
1 48797U 21045AG  24158.45352033  .00000168  00000+0  41112-3 0  9998
2 48797  87.9057  46.6042 0002002  77.8124 282.3230 13.15548239146864
ONEWEB-0248             
1 48798U 21045AH  24159.68311553  .00000147  00000+0  35648-3 0  9991
2 48798  87.9045  46.3512 0002611  72.4183 287.7232 13.15547815148304
ONEWEB-0225             
1 48799U 21045AJ  24158.41231993 -.00000102  00000+0 -30512-3 0  9999
2 48799  87.9052  46.6155 0002383  82.4506 277.6895 13.15547685147021
ONEWEB-0215             
1 48800U 21045AK  24159.67518988  .00000177  00000+0  43542-3 0  9990
2 48800  87.9044  46.3390 0002769  78.4723 281.6718 13.15547481148188
ONEWEB-0216             
1 48801U 21045AL  24159.60863500  .00000154  00000+0  37400-3 0  9998
2 48801  87.9048  46.3931 0001932  89.5996 270.5356 13.15547487147067
ONEWEB-0239             
1 48802U 21045AM  24159.38522392  .00000073  00000+0  15863-3 0  9994
2 48802  87.9056  46.4123 0002805  72.5396 287.6041 13.15548446147074
ONEWEB-0249             
1 48967U 21060A   24159.52569234  .00000055  00000+0  11130-3 0  9998
2 48967  87.9111  16.0214 0001830  84.0368 276.0972 13.16593654142281
ONEWEB-0250             
1 48968U 21060B   24159.83433940  .00000100  00000+0  22716-3 0  9990
2 48968  87.9108  15.9434 0002137  80.1985 279.9388 13.16599378143590
ONEWEB-0252             
1 48970U 21060D   24159.32936409 -.00000025  00000+0 -97836-4 0  9999
2 48970  87.9112  16.0534 0001904  89.7793 270.3556 13.16593097142306
ONEWEB-0253             
1 48971U 21060E   24159.85026114  .00000035  00000+0  57192-4 0  9991
2 48971  87.9113  15.9624 0002152  86.6731 273.4646 13.16593199143588
ONEWEB-0254             
1 48972U 21060F   24159.32779531  .00000000  00000+0 -34451-4 0  9998
2 48972  87.9115  16.0435 0002212  86.9056 273.2328 13.16595532142232
ONEWEB-0255             
1 48973U 21060G   24159.51777781  .00000068  00000+0  14437-3 0  9999
2 48973  87.9110  16.0406 0001872  83.8857 276.2487 13.16593432142339
ONEWEB-0256             
1 48974U 21060H   24159.31590611  .00000012  00000+0 -14031-5 0  9995
2 48974  87.9117  16.0835 0001752  89.7420 270.3912 13.16593630142272
ONEWEB-0257             
1 48975U 21060J   24159.34836318  .00000092  00000+0  20707-3 0  9998
2 48975  87.9112  16.0481 0001911  89.4475 270.6875 13.16592940142239
ONEWEB-0258             
1 48976U 21060K   24159.34994559  .00000085  00000+0  18895-3 0  9998
2 48976  87.9111  16.0763 0001841  82.9612 277.1728 13.16592514142242
ONEWEB-0259             
1 48977U 21060L   24159.57160384  .00000037  00000+0  62365-4 0  9994
2 48977  87.9112  16.0169 0001980  80.0431 280.0923 13.16592391143598
ONEWEB-0260             
1 48978U 21060M   24159.33490288  .00000007  00000+0 -15846-4 0  9998
2 48978  87.9111  16.0927 0001857 104.5764 255.5572 13.16592748142259
ONEWEB-0261             
1 48979U 21060N   24159.30403165  .00000086  00000+0  19162-3 0  9994
2 48979  87.9115  16.0923 0002419  90.9918 269.1490 13.16593498142303
ONEWEB-0262             
1 48980U 21060P   24159.89300753  .00000133  00000+0  31457-3 0  9993
2 48980  87.9113  15.9398 0002229  77.4182 282.7198 13.16594320143648
ONEWEB-0263             
1 48981U 21060Q   24159.62068863 -.00000008  00000+0 -55751-4 0  9995
2 48981  87.9116  16.0097 0002350  84.3195 275.8204 13.16593571142272
ONEWEB-0264             
1 48982U 21060R   24159.58189614  .00000025  00000+0  31597-4 0  9998
2 48982  87.9112  16.0291 0001902  85.8506 274.2842 13.16592266143563
ONEWEB-0266             
1 48984U 21060T   24159.52727844  .00000064  00000+0  13366-3 0  9993
2 48984  87.9110  16.0177 0001798  81.6898 278.4437 13.16593630142254
ONEWEB-0267             
1 48985U 21060U   24159.31036532  .00000024  00000+0  30293-4 0  9993
2 48985  87.9113  16.0622 0002188  90.9469 269.1912 13.16593611142236
ONEWEB-0268             
1 48986U 21060V   24159.58268450  .00000034  00000+0  55446-4 0  9997
2 48986  87.9112  16.0143 0001856  89.3767 270.7577 13.16593878143824
ONEWEB-0269             
1 48987U 21060W   24159.33569836  .00000014  00000+0  19404-5 0  9996
2 48987  87.9113  16.0886 0001725  86.1999 273.9329 13.16592772142277
ONEWEB-0270             
1 48988U 21060X   24159.58111082  .00000029  00000+0  42192-4 0  9995
2 48988  87.9106  16.0230 0002423  83.0497 277.0910 13.16592701143654
